CCSDS_OMM_VERS = 2.0
CREATION_DATE  = 
ORIGINATOR     = 

OBJECT_NAME    = STARLINK-35701
OBJECT_ID      = 2025-299S
CENTER_NAME    = EARTH
REF_FRAME      = TEME
TIME_SYSTEM    = UTC
MEAN_ELEMENT_THEORY = SGP/SGP4

EPOCH          = 2025-12-30T20:00:03.000384
MEAN_MOTION    = 15.61074551
ECCENTRICITY   = .0001243
INCLINATION    = 42.9988
RA_OF_ASC_NODE = 206.1869
ARG_OF_PERICENTER = 259.4131
MEAN_ANOMALY   = 310.2042

EPHEMERIS_TYPE = 0
CLASSIFICATION_TYPE = U
NORAD_CAT_ID   = 67118
ELEMENT_SET_NO = 999
REV_AT_EPOCH   = 366
BSTAR          = -.25632E-1
MEAN_MOTION_DOT = -.195486E-1
MEAN_MOTION_DDOT = 0

CCSDS_OMM_VERS = 2.0
CREATION_DATE  = 
ORIGINATOR     = 

OBJECT_NAME    = STARLINK-36179
OBJECT_ID      = 2025-299T
CENTER_NAME    = EARTH
REF_FRAME      = TEME
TIME_SYSTEM    = UTC
MEAN_ELEMENT_THEORY = SGP/SGP4

EPOCH          = 2025-12-30T20:00:03.000384
MEAN_MOTION    = 15.61099156
ECCENTRICITY   = .0001292
INCLINATION    = 42.9990
RA_OF_ASC_NODE = 206.1775
ARG_OF_PERICENTER = 257.8941
MEAN_ANOMALY   = 315.2349

EPHEMERIS_TYPE = 0
CLASSIFICATION_TYPE = U
NORAD_CAT_ID   = 67119
ELEMENT_SET_NO = 999
REV_AT_EPOCH   = 371
BSTAR          = -.25335E-1
MEAN_MOTION_DOT = -.1936574E-1
MEAN_MOTION_DDOT = 0

CCSDS_OMM_VERS = 2.0
CREATION_DATE  = 
ORIGINATOR     = 

OBJECT_NAME    = STARLINK-36217
OBJECT_ID      = 2025-299U
CENTER_NAME    = EARTH
REF_FRAME      = TEME
TIME_SYSTEM    = UTC
MEAN_ELEMENT_THEORY = SGP/SGP4

EPOCH          = 2025-12-30T20:00:03.000384
MEAN_MOTION    = 15.61083617
ECCENTRICITY   = .000136
INCLINATION    = 42.9987
RA_OF_ASC_NODE = 206.1827
ARG_OF_PERICENTER = 266.0112
MEAN_ANOMALY   = 305.3941

EPHEMERIS_TYPE = 0
CLASSIFICATION_TYPE = U
NORAD_CAT_ID   = 67120
ELEMENT_SET_NO = 999
REV_AT_EPOCH   = 371
BSTAR          = -.2554E-1
MEAN_MOTION_DOT = -.1949415E-1
MEAN_MOTION_DDOT = 0

CCSDS_OMM_VERS = 2.0
CREATION_DATE  = 
ORIGINATOR     = 

OBJECT_NAME    = STARLINK-36124
OBJECT_ID      = 2025-299V
CENTER_NAME    = EARTH
REF_FRAME      = TEME
TIME_SYSTEM    = UTC
MEAN_ELEMENT_THEORY = SGP/SGP4

EPOCH          = 2025-12-30T20:00:03.000384
MEAN_MOTION    = 15.61119189
ECCENTRICITY   = .0001323
INCLINATION    = 42.9992
RA_OF_ASC_NODE = 206.1685
ARG_OF_PERICENTER = 261.5233
MEAN_ANOMALY   = 315.3277

EPHEMERIS_TYPE = 0
CLASSIFICATION_TYPE = U
NORAD_CAT_ID   = 67121
ELEMENT_SET_NO = 999
REV_AT_EPOCH   = 371
BSTAR          = -.25543E-1
MEAN_MOTION_DOT = -.1951967E-1
MEAN_MOTION_DDOT = 0

CCSDS_OMM_VERS = 2.0
CREATION_DATE  = 
ORIGINATOR     = 

OBJECT_NAME    = STARLINK-36188
OBJECT_ID      = 2025-299W
CENTER_NAME    = EARTH
REF_FRAME      = TEME
TIME_SYSTEM    = UTC
MEAN_ELEMENT_THEORY = SGP/SGP4

EPOCH          = 2025-12-30T20:00:03.000384
MEAN_MOTION    = 15.61131233
ECCENTRICITY   = .0001361
INCLINATION    = 42.9992
RA_OF_ASC_NODE = 206.1648
ARG_OF_PERICENTER = 262.7690
MEAN_ANOMALY   = 315.8673

EPHEMERIS_TYPE = 0
CLASSIFICATION_TYPE = U
NORAD_CAT_ID   = 67122
ELEMENT_SET_NO = 999
REV_AT_EPOCH   = 371
BSTAR          = -.25452E-1
MEAN_MOTION_DOT = -.1946661E-1
MEAN_MOTION_DDOT = 0

CCSDS_OMM_VERS = 2.0
CREATION_DATE  = 
ORIGINATOR     = 

OBJECT_NAME    = STARLINK-36151
OBJECT_ID      = 2025-299X
CENTER_NAME    = EARTH
REF_FRAME      = TEME
TIME_SYSTEM    = UTC
MEAN_ELEMENT_THEORY = SGP/SGP4

EPOCH          = 2025-12-30T20:00:03.000384
MEAN_MOTION    = 15.61118290
ECCENTRICITY   = .0001349
INCLINATION    = 42.9991
RA_OF_ASC_NODE = 206.1737
ARG_OF_PERICENTER = 261.0649
MEAN_ANOMALY   = 313.9143

EPHEMERIS_TYPE = 0
CLASSIFICATION_TYPE = U
NORAD_CAT_ID   = 67123
ELEMENT_SET_NO = 999
REV_AT_EPOCH   = 371
BSTAR          = -.2561E-1
MEAN_MOTION_DOT = -.1956383E-1
MEAN_MOTION_DDOT = 0

CCSDS_OMM_VERS = 2.0
CREATION_DATE  = 
ORIGINATOR     = 

OBJECT_NAME    = STARLINK-36195
OBJECT_ID      = 2025-299Y
CENTER_NAME    = EARTH
REF_FRAME      = TEME
TIME_SYSTEM    = UTC
MEAN_ELEMENT_THEORY = SGP/SGP4

EPOCH          = 2025-12-30T20:00:03.000384
MEAN_MOTION    = 15.61146640
ECCENTRICITY   = .0001331
INCLINATION    = 42.9991
RA_OF_ASC_NODE = 206.1598
ARG_OF_PERICENTER = 257.2393
MEAN_ANOMALY   = 323.2303

EPHEMERIS_TYPE = 0
CLASSIFICATION_TYPE = U
NORAD_CAT_ID   = 67124
ELEMENT_SET_NO = 999
REV_AT_EPOCH   = 371
BSTAR          = -.25551E-1
MEAN_MOTION_DOT = -.1954316E-1
MEAN_MOTION_DDOT = 0

CCSDS_OMM_VERS = 2.0
CREATION_DATE  = 
ORIGINATOR     = 

OBJECT_NAME    = STARLINK-36219
OBJECT_ID      = 2025-299Z
CENTER_NAME    = EARTH
REF_FRAME      = TEME
TIME_SYSTEM    = UTC
MEAN_ELEMENT_THEORY = SGP/SGP4

EPOCH          = 2025-12-30T20:00:03.000384
MEAN_MOTION    = 15.61152757
ECCENTRICITY   = .0001296
INCLINATION    = 42.9990
RA_OF_ASC_NODE = 206.1550
ARG_OF_PERICENTER = 262.2934
MEAN_ANOMALY   = 319.9873

EPHEMERIS_TYPE = 0
CLASSIFICATION_TYPE = U
NORAD_CAT_ID   = 67125
ELEMENT_SET_NO = 999
REV_AT_EPOCH   = 371
BSTAR          = -.25437E-1
MEAN_MOTION_DOT = -.1947019E-1
MEAN_MOTION_DDOT = 0

CCSDS_OMM_VERS = 2.0
CREATION_DATE  = 
ORIGINATOR     = 

OBJECT_NAME    = STARLINK-36223
OBJECT_ID      = 2025-299AA
CENTER_NAME    = EARTH
REF_FRAME      = TEME
TIME_SYSTEM    = UTC
MEAN_ELEMENT_THEORY = SGP/SGP4

EPOCH          = 2025-12-30T20:00:03.000384
MEAN_MOTION    = 15.61162559
ECCENTRICITY   = .0001397
INCLINATION    = 42.9989
RA_OF_ASC_NODE = 206.1501
ARG_OF_PERICENTER = 261.4517
MEAN_ANOMALY   = 322.7226

EPHEMERIS_TYPE = 0
CLASSIFICATION_TYPE = U
NORAD_CAT_ID   = 67126
ELEMENT_SET_NO = 999
REV_AT_EPOCH   = 371
BSTAR          = -.25571E-1
MEAN_MOTION_DOT = -.1956773E-1
MEAN_MOTION_DDOT = 0

CCSDS_OMM_VERS = 2.0
CREATION_DATE  = 
ORIGINATOR     = 

OBJECT_NAME    = STARLINK-36164
OBJECT_ID      = 2025-299AB
CENTER_NAME    = EARTH
REF_FRAME      = TEME
TIME_SYSTEM    = UTC
MEAN_ELEMENT_THEORY = SGP/SGP4

EPOCH          = 2025-12-30T20:00:03.000384
MEAN_MOTION    = 15.61167572
ECCENTRICITY   = .0001268
INCLINATION    = 42.9989
RA_OF_ASC_NODE = 206.1455
ARG_OF_PERICENTER = 257.5253
MEAN_ANOMALY   = 328.4960

EPHEMERIS_TYPE = 0
CLASSIFICATION_TYPE = U
NORAD_CAT_ID   = 67127
ELEMENT_SET_NO = 999
REV_AT_EPOCH   = 371
BSTAR          = -.25496E-1
MEAN_MOTION_DOT = -.1952021E-1
MEAN_MOTION_DDOT = 0

CCSDS_OMM_VERS = 2.0
CREATION_DATE  = 
ORIGINATOR     = 

OBJECT_NAME    = STARLINK-35685
OBJECT_ID      = 2025-299AC
CENTER_NAME    = EARTH
REF_FRAME      = TEME
TIME_SYSTEM    = UTC
MEAN_ELEMENT_THEORY = SGP/SGP4

EPOCH          = 2025-12-30T20:00:03.000384
MEAN_MOTION    = 15.61134633
ECCENTRICITY   = .0001414
INCLINATION    = 42.9989
RA_OF_ASC_NODE = 206.1347
ARG_OF_PERICENTER = 258.1004
MEAN_ANOMALY   = 332.0262

EPHEMERIS_TYPE = 0
CLASSIFICATION_TYPE = U
NORAD_CAT_ID   = 67128
ELEMENT_SET_NO = 999
REV_AT_EPOCH   = 371
BSTAR          = -.25474E-1
MEAN_MOTION_DOT = -.1948423E-1
MEAN_MOTION_DDOT = 0

CCSDS_OMM_VERS = 2.0
CREATION_DATE  = 
ORIGINATOR     = 

OBJECT_NAME    = STARLINK-36214
OBJECT_ID      = 2025-299AD
CENTER_NAME    = EARTH
REF_FRAME      = TEME
TIME_SYSTEM    = UTC
MEAN_ELEMENT_THEORY = SGP/SGP4

EPOCH          = 2025-12-30T20:00:03.000384
MEAN_MOTION    = 15.61159481
ECCENTRICITY   = .0001377
INCLINATION    = 42.9988
RA_OF_ASC_NODE = 206.1409
ARG_OF_PERICENTER = 264.3436
MEAN_ANOMALY   = 323.6127

EPHEMERIS_TYPE = 0
CLASSIFICATION_TYPE = U
NORAD_CAT_ID   = 67129
ELEMENT_SET_NO = 999
REV_AT_EPOCH   = 371
BSTAR          = -.25411E-1
MEAN_MOTION_DOT = -.1945785E-1
MEAN_MOTION_DDOT = 0

