STARLINK-35701          
1 67118U 25299S   25364.83336806 -.01954860  00000+0 -25632-1 0  9990
2 67118  42.9988 206.1869 0001243 259.4131 310.2042 15.61074551  3664
STARLINK-36179          
1 67119U 25299T   25364.83336806 -.01936574  00000+0 -25335-1 0  9993
2 67119  42.9990 206.1775 0001292 257.8941 315.2349 15.61099156  3718
STARLINK-36217          
1 67120U 25299U   25364.83336806 -.01949415  00000+0 -25540-1 0  9991
2 67120  42.9987 206.1827 0001360 266.0112 305.3941 15.61083617  3715
STARLINK-36124          
1 67121U 25299V   25364.83336806 -.01951967  00000+0 -25543-1 0  9990
2 67121  42.9992 206.1685 0001323 261.5233 315.3277 15.61119189  3714
STARLINK-36188          
1 67122U 25299W   25364.83336806 -.01946661  00000+0 -25452-1 0  9995
2 67122  42.9992 206.1648 0001361 262.7690 315.8673 15.61131233  3715
STARLINK-36151          
1 67123U 25299X   25364.83336806 -.01956383  00000+0 -25610-1 0  9994
2 67123  42.9991 206.1737 0001349 261.0649 313.9143 15.61118290  3715
STARLINK-36195          
1 67124U 25299Y   25364.83336806 -.01954316  00000+0 -25551-1 0  9993
2 67124  42.9991 206.1598 0001331 257.2393 323.2303 15.61146640  3717
STARLINK-36219          
1 67125U 25299Z   25364.83336806 -.01947019  00000+0 -25437-1 0  9999
2 67125  42.9990 206.1550 0001296 262.2934 319.9873 15.61152757  3712
STARLINK-36223          
1 67126U 25299AA  25364.83336806 -.01956773  00000+0 -25571-1 0  9996
2 67126  42.9989 206.1501 0001397 261.4517 322.7226 15.61162559  3712
STARLINK-36164          
1 67127U 25299AB  25364.83336806 -.01952021  00000+0 -25496-1 0  9995
2 67127  42.9989 206.1455 0001268 257.5253 328.4960 15.61167572  3719
STARLINK-35685          
1 67128U 25299AC  25364.83336806 -.01948423  00000+0 -25474-1 0  9993
2 67128  42.9989 206.1347 0001414 258.1004 332.0262 15.61134633  3712
STARLINK-36214          
1 67129U 25299AD  25364.83336806 -.01945785  00000+0 -25411-1 0  9993
2 67129  42.9988 206.1409 0001377 264.3436 323.6127 15.61159481  3711
